NORAD_CAT_ID,OBJECT_NAME,OBJECT_TYPE,EPOCH,MEAN_MOTION,ECCENTRICITY,INCLINATION,RA_OF_ASC_NODE,ARG_OF_PERICENTER,MEAN_ANOMALY,BSTAR,MEAN_MOTION_DOT,MEAN_MOTION_DDOT,TLE_LINE0,TLE_LINE1,TLE_LINE2,SEMIMAJOR_AXIS,PERIOD,APOGEE,PERIGEE,DECAYED
55771.0,STARLINK-5591,PAYLOAD,2023-05-31 16:48:41,15.69925793,0.0002854,70.0006,265.1316,267.1973,92.8896,1.8064e-05,1.96e-05,0.0,0 STARLINK-5591,1 55771U 23028AG  23151.70048309  .00001960  00000-0  18064-4 0  9992,2 55771  70.0006 265.1316 0002854 267.1973  92.8896 15.69925793 14630,6737.246,91.724,361.034,357.188,0.0
55771.0,STARLINK-5591,PAYLOAD,2023-06-01 11:09:43,15.69922691,0.0003038,69.9986,262.9797,274.4171,85.6677,1.1956e-05,1.225e-05,0.0,0 STARLINK-5591,1 55771U 23028AG  23152.46508580  .00001225  00000-0  11956-4 0  9995,2 55771  69.9986 262.9797 0003038 274.4171  85.6677 15.69922691 14752,6737.255,91.724,361.167,357.073,0.0
55771.0,STARLINK-5591,PAYLOAD,2023-06-02 10:06:00,15.69915504,0.0003281,69.9989,260.2935,262.4386,97.6438,-3.8239e-06,-6.72e-06,0.0,0 STARLINK-5591,1 55771U 23028AG  23153.42084328 -.00000672  00000-0 -38239-5 0  9992,2 55771  69.9989 260.2935 0003281 262.4386  97.6438 15.69915504 14893,6737.276,91.725,361.351,356.93,0.0
55771.0,STARLINK-5591,PAYLOAD,2023-06-02 16:13:01,15.69918547,0.0003253,69.9989,259.5769,263.198,96.8846,1.3681e-07,-1.96e-06,0.0,0 STARLINK-5591,1 55771U 23028AG  23153.67570859 -.00000196  00000-0  13681-6 0  9993,2 55771  69.9989 259.5769 0003253 263.1980  96.8846 15.69918547 14946,6737.267,91.725,361.324,356.94,0.0
55771.0,STARLINK-5591,PAYLOAD,2023-06-03 10:34:01,15.69925299,0.0003771,69.9994,257.4264,266.7583,93.3182,3.7979e-05,4.357e-05,0.0,0 STARLINK-5591,1 55771U 23028AG  23154.44029725  .00004357  00000-0  37979-4 0  9996,2 55771  69.9994 257.4264 0003771 266.7583  93.3182 15.69925299 15052,6737.248,91.724,361.653,356.572,0.0
55771.0,STARLINK-5591,PAYLOAD,2023-06-03 16:41:02,15.69928599,0.0003331,69.9975,256.7085,261.8205,98.2613,7.9556e-06,7.44e-06,0.0,0 STARLINK-5591,1 55771U 23028AG  23154.69516676  .00000744  00000-0  79556-5 0  9993,2 55771  69.9975 256.7085 0003331 261.8205  98.2613 15.69928599 15108,6737.238,91.724,361.347,356.859,0.0
55771.0,STARLINK-5591,PAYLOAD,2023-06-04 00:19:51,15.69886309,0.0002435,69.9995,255.8158,282.2416,77.8507,-1.6323e-05,-2.171e-05,0.0,0 STARLINK-5591,1 55771U 23028AG  23155.01378910 -.00002171  00000-0 -16323-4 0  9997,2 55771  69.9995 255.8158 0002435 282.2416  77.8507 15.69886309 15147,6737.359,91.726,360.865,357.584,0.0
55771.0,STARLINK-5591,PAYLOAD,2023-06-04 09:30:51,15.69459159,0.0006058,69.9983,254.7415,298.2391,61.8193,-0.0005005,-0.00058884,0.0,0 STARLINK-5591,1 55771U 23028AG  23155.39643195 -.00058884  00000-0 -50050-3 0  9994,2 55771  69.9983 254.7415 0006058 298.2391  61.8193 15.69459159 15202,6738.582,91.751,364.529,356.364,0.0
55771.0,STARLINK-5591,PAYLOAD,2023-06-04 22:00:00,15.67970301,0.0003552,70.0007,253.2815,273.4926,144.5363,-0.0094532,-0.00953034,0.0,0 STARLINK-5591,1 55771U 23028AG  23155.91667824 -.00953034  00000-0 -94532-2 0  9990,2 55771  70.0007 253.2815 0003552 273.4926 144.5363 15.67970301 15286,6742.847,91.838,367.107,362.317,0.0
55771.0,STARLINK-5591,PAYLOAD,2023-06-05 14:00:01,15.66610706,0.0003419,70.0007,251.4151,275.3581,303.1184,-0.00887,-0.00842597,0.0,0 STARLINK-5591,1 55771U 23028AG  23156.58335648 -.00842597  00000-0 -88700-2 0  9991,2 55771  70.0007 251.4151 0003419 275.3581 303.1184 15.66610706 15394,6746.747,91.918,370.919,366.306,0.0
55771.0,STARLINK-5591,PAYLOAD,2023-06-06 00:00:00,15.65797183,0.0003466,70.0003,250.2499,272.1867,134.8656,-0.0092723,-0.00851421,0.0,0 STARLINK-5591,1 55771U 23028AG  23157.00001157 -.00851421  00000-0 -92723-2 0  9990,2 55771  70.0003 250.2499 0003466 272.1867 134.8656 15.65797183  1309,6749.084,91.966,373.288,368.61,0.0
55771.0,STARLINK-5591,PAYLOAD,2023-06-06 06:00:00,15.65372851,0.0003508,70.0003,249.5518,269.1247,106.498,-0.010498,-0.00952578,0.0,0 STARLINK-5591,1 55771U 23028AG  23157.25001157 -.00952578  00000-0 -10498-1 0  9990,2 55771  70.0003 249.5518 0003508 269.1247 106.4980 15.65372851 15498,6750.304,91.991,374.537,369.801,0.0
55771.0,STARLINK-5591,PAYLOAD,2023-06-06 14:00:01,15.64665973,0.000332,70.0002,248.6215,277.6718,175.4159,-0.0097901,-0.008709,0.0,0 STARLINK-5591,1 55771U 23028AG  23157.58334491 -.00870900  00000-0 -97901-2 0  9999,2 55771  70.0002 248.6215 0003320 277.6718 175.4159 15.64665973  1308,6752.337,92.032,376.443,371.96,0.0
55771.0,STARLINK-5591,PAYLOAD,2023-06-06 20:00:01,15.64225425,0.0003352,69.9998,247.9244,277.747,142.8967,-0.011047,-0.00957011,0.0,0 STARLINK-5591,1 55771U 23028AG  23157.83334491 -.00957011  00000-0 -11047-1 0  9992,2 55771  69.9998 247.9244 0003352 277.7470 142.8967 15.64225425  1303,6753.604,92.058,377.733,373.206,0.0
55771.0,STARLINK-5591,PAYLOAD,2023-06-07 06:00:00,15.63416672,0.0003309,70.0001,246.764,268.9831,336.6272,-0.011345,-0.00952312,0.0,0 STARLINK-5591,1 55771U 23028AG  23158.25001157 -.00952312  00000-0 -11345-1 0  9999,2 55771  70.0001 246.7640 0003309 268.9831 336.6272 15.63416672 15653,6755.933,92.106,380.034,375.563,0.0
55771.0,STARLINK-5591,PAYLOAD,2023-06-07 14:10:45,15.64423132,0.0003872,69.997,245.8177,273.4213,86.6537,-0.0028485,-0.00265842,0.0,0 STARLINK-5591,1 55771U 23028AG  23158.59079990 -.00265842  00000-0 -28485-2 0  9995,2 55771  69.9970 245.8177 0003872 273.4213  86.6537 15.64423132 15713,6753.035,92.047,377.515,372.286,0.0
55771.0,STARLINK-5591,PAYLOAD,2023-06-07 22:00:00,15.62074382,0.0003367,69.9993,244.9097,272.5482,122.4936,-0.011372,-0.00909709,0.0,0 STARLINK-5591,1 55771U 23028AG  23158.91667824 -.00909709  00000-0 -11372-1 0  9993,2 55771  69.9993 244.9097 0003367 272.5482 122.4936 15.62074382  1305,6759.803,92.185,383.944,379.392,0.0
55771.0,STARLINK-5591,PAYLOAD,2023-06-08 06:00:00,15.61454601,0.0003293,69.9995,243.9838,268.7601,199.8008,-0.012139,-0.0094443,0.0,0 STARLINK-5591,1 55771U 23028AG  23159.25001157 -.00944430  00000-0 -12139-1 0  9994,2 55771  69.9995 243.9838 0003293 268.7601 199.8008 15.61454601 15811,6761.592,92.222,385.683,381.23,0.0
55771.0,STARLINK-5591,PAYLOAD,2023-06-08 14:00:01,15.60753038,0.0003202,69.9995,243.0588,274.3554,266.975,-0.011429,-0.00871988,0.0,0 STARLINK-5591,1 55771U 23028AG  23159.58334491 -.00871988  00000-0 -11429-1 0  9998,2 55771  69.9995 243.0588 0003202 274.3554 266.9750 15.60753038  1308,6763.618,92.263,387.648,383.317,0.0
55771.0,STARLINK-5591,PAYLOAD,2023-06-08 22:00:00,15.60118851,0.000326,69.9992,242.1349,270.6801,342.6162,-0.012324,-0.00913602,0.0,0 STARLINK-5591,1 55771U 23028AG  23159.91667824 -.00913602  00000-0 -12324-1 0  9999,2 55771  69.9992 242.1349 0003260 270.6801 342.6162 15.60118851  1305,6765.45,92.301,389.521,385.11,0.0
55771.0,STARLINK-5591,PAYLOAD,2023-06-09 06:00:00,15.59502765,0.0003486,69.9995,241.2121,267.8882,56.5772,-0.013187,-0.00951072,0.0,0 STARLINK-5591,1 55771U 23028AG  23160.25001157 -.00951072  00000-0 -13187-1 0  9990,2 55771  69.9995 241.2121 0003486 267.8882  56.5772 15.59502765 15967,6767.232,92.337,391.456,386.738,0.0
55771.0,STARLINK-5591,PAYLOAD,2023-06-09 12:19:26,15.60603583,0.0004161,69.9959,240.485,268.1659,91.9055,-0.0033992,-0.00273154,0.0,0 STARLINK-5591,1 55771U 23028AG  23160.51350587 -.00273154  00000-0 -33992-2 0  9998,2 55771  69.9959 240.4850 0004161 268.1659  91.9055 15.60603583 16010,6764.049,92.272,388.729,383.1,0.0
55771.0,STARLINK-5591,PAYLOAD,2023-06-09 22:00:00,15.58149564,0.0003459,69.9989,239.3683,271.7659,192.7474,-0.012931,-0.00891494,0.0,0 STARLINK-5591,1 55771U 23028AG  23160.91667824 -.00891494  00000-0 -12931-1 0  9999,2 55771  69.9989 239.3683 0003459 271.7659 192.7474 15.58149564  1305,6771.15,92.417,395.357,390.673,0.0
55771.0,STARLINK-5591,PAYLOAD,2023-06-10 06:00:02,15.57539002,0.0003438,69.9995,238.4479,267.1012,266.2989,-0.014031,-0.00940386,0.0,0 STARLINK-5591,1 55771U 23028AG  23161.25002315 -.00940386  00000-0 -14031-1 0  9993,2 55771  69.9995 238.4479 0003438 267.1012 266.2989 15.57539002 16127,6772.919,92.454,397.113,392.456,0.0
55771.0,STARLINK-5591,PAYLOAD,2023-06-10 14:00:01,15.56834731,0.0003551,69.9995,237.5282,273.1026,328.3103,-0.013184,-0.00867362,0.0,0 STARLINK-5591,1 55771U 23028AG  23161.58334491 -.00867362  00000-0 -13184-1 0  9992,2 55771  69.9995 237.5282 0003551 273.1026 328.3103 15.56834731  1305,6774.962,92.495,399.232,394.421,0.0
55771.0,STARLINK-5591,PAYLOAD,2023-06-10 22:00:00,15.56198432,0.0003561,69.9992,236.6095,268.8419,39.8408,-0.014049,-0.00899501,0.0,0 STARLINK-5591,1 55771U 23028AG  23161.91667824 -.00899501  00000-0 -14049-1 0  9999,2 55771  69.9992 236.6095 0003561 268.8419  39.8408 15.56198432  1305,6776.808,92.533,401.086,396.26,0.0
55771.0,STARLINK-5591,PAYLOAD,2023-06-11 14:00:01,15.54879445,0.0003514,69.9995,234.775,276.2751,164.6132,-0.014115,-0.00863925,0.0,0 STARLINK-5591,1 55771U 23028AG  23162.58334491 -.00863925  00000-0 -14115-1 0  9999,2 55771  69.9995 234.7750 0003514 276.2751 164.6132 15.54879445 16322,6780.64,92.612,404.888,400.122,0.0
55771.0,STARLINK-5591,PAYLOAD,2023-06-11 22:00:00,15.54234912,0.0003375,69.9994,233.8589,271.7469,234.071,-0.01492,-0.00889346,0.0,0 STARLINK-5591,1 55771U 23028AG  23162.91667824 -.00889346  00000-0 -14920-1 0  9994,2 55771  69.9994 233.8589 0003375 271.7469 234.0710 15.54234912  1302,6782.515,92.65,406.669,402.09,0.0
55771.0,STARLINK-5591,PAYLOAD,2023-06-12 06:00:00,15.5363367,0.0003357,70.0,232.9442,268.0341,301.9106,-0.016569,-0.00972672,0.0,0 STARLINK-5591,1 55771U 23028AG  23163.25001157 -.00972672  00000-0 -16569-1 0  9999,2 55771  70.0000 232.9442 0003357 268.0341 301.9106 15.53633670 16435,6784.264,92.686,408.407,403.852,0.0
55771.0,STARLINK-5591,PAYLOAD,2023-06-12 14:00:01,15.52928183,0.00034,69.9999,232.0299,274.098,359.2911,-0.015306,-0.00871567,0.0,0 STARLINK-5591,1 55771U 23028AG  23163.58335648 -.00871567  00000-0 -15306-1 0  9999,2 55771  69.9999 232.0299 0003400 274.0980 359.2911 15.52928183  1300,6786.319,92.728,410.491,405.876,0.0
